MTI
1 26102U 00014A   18335.92389211 +.00003214 +00000-0 +56025-4 0  9993
2 26102 097.5707 178.9696 0010150 129.3477 230.8676 15.51507910037022
